H1 CPF 01  gfz 2021 08 12 12  7242 terrasarx 
H2 0702601  6201 31698    2021 08 12 12 59 42 2021 08 17 00 00 42   120 1 1  0 0 0
H9
10 0 59442  65502.000000  0   -6858079.160    378936.521   -543913.911
10 0 59442  65622.000000  0   -6716782.127    548654.795  -1438908.892
10 0 59442  65742.000000  0   -6455365.538    705271.876  -2308606.691
10 0 59442  65862.000000  0   -6078760.680    844004.499  -3137748.836
10 0 59442  65982.000000  0   -5593993.398    960492.236  -3911822.660
10 0 59442  66102.000000  0   -5010039.094   1050908.246  -4617315.805
10 0 59442  66222.000000  0   -4337643.547   1112056.849  -5241948.698
10 0 59442  66342.000000  0   -3589113.364   1141455.810  -5774880.878
10 0 59442  66462.000000  0   -2778082.077   1137401.596  -6206889.233
10 0 59442  66582.000000  0   -1919256.807   1099016.348  -6530516.093
10 0 59442  66702.000000  0   -1028149.900   1026277.723  -6740186.862
10 0 59442  66822.000000  0    -120801.032    920029.330  -6832294.740
10 0 59442  66942.000000  0     786504.395    781972.671  -6805255.281
10 0 59442  67062.000000  0    1677519.980    614640.422  -6659533.200
10 0 59442  67182.000000  0    2536323.897    421351.097  -6397635.492
10 0 59442  67302.000000  0    3347597.877    206146.408  -6024072.828
10 0 59442  67422.000000  0    4096897.308    -26288.608  -5545289.088
10 0 59442  67542.000000  0    4770907.216   -270721.551  -4969560.781
10 0 59442  67662.000000  0    5357683.566   -521482.622  -4306866.372
10 0 59442  67782.000000  0    5846872.865   -772587.572  -3568723.169
10 0 59442  67902.000000  0    6229904.948  -1017870.973  -2767995.675
10 0 59442  68022.000000  0    6500155.338  -1251127.523  -1918677.004
10 0 59442  68142.000000  0    6653072.570  -1466257.515  -1035645.804
10 0 59442  68262.000000  0    6686265.708  -1657413.025   -134403.439
10 0 59442  68382.000000  0    6599550.266  -1819141.415    769203.154
10 0 59442  68502.000000  0    6394949.676  -1946522.299   1659268.441
10 0 59442  68622.000000  0    6076651.827  -2035294.436   2520116.958
10 0 59442  68742.000000  0    5650922.105  -2081968.841   3336588.706
10 0 59442  68862.000000  0    5125973.963  -2083924.999   4094313.133
10 0 59442  68982.000000  0    4511802.133  -2039488.433   4779965.539
10 0 59442  69102.000000  0    3819984.604  -1947987.050   5381502.441
10 0 59442  69222.000000  0    3063455.546  -1809786.467   5888373.140
10 0 59442  69342.000000  0    2256254.525  -1626302.499   6291700.209
10 0 59442  69462.000000  0    1413260.491  -1399991.574   6584429.024
10 0 59442  69582.000000  0     549913.524  -1134319.124   6761445.493
10 0 59442  69702.000000  0    -318069.982   -833705.833   6819659.650
10 0 59442  69822.000000  0   -1174982.883   -503453.517   6758055.030
10 0 59442  69942.000000  0   -2005409.991   -149651.900   6577705.101
10 0 59442  70062.000000  0   -2794503.996    220933.143   6281755.976
10 0 59442  70182.000000  0   -3528250.991    600987.838   5875375.966
10 0 59442  70302.000000  0   -4193722.152    982792.956   5365671.495
10 0 59442  70422.000000  0   -4779306.971   1358378.397   4761568.942
10 0 59442  70542.000000  0   -5274923.160   1719687.941   4073663.860
10 0 59442  70662.000000  0   -5672198.571   2058749.893   3314038.419
10 0 59442  70782.000000  0   -5964620.837   2367850.260   2496051.002
10 0 59442  70902.000000  0   -6147652.481   2639704.596   1634100.712
10 0 59442  71022.000000  0   -6218808.200   2867624.691    743369.571
10 0 59442  71142.000000  0   -6177689.890   3045675.110   -160452.636
10 0 59442  71262.000000  0   -6025979.504   3168815.588  -1061453.159
10 0 59442  71382.000000  0   -5767390.049   3233025.256  -1943785.399
10 0 59442  71502.000000  0   -5407575.677   3235406.555  -2791956.702
10 0 59442  71622.000000  0   -4954002.214   3174264.842  -3591106.611
10 0 59442  71742.000000  0   -4415783.859   3049162.857  -4327269.775
10 0 59442  71862.000000  0   -3803490.419   2860948.934  -4987617.913
10 0 59442  71982.000000  0   -3128930.920   2611758.738  -5560677.311
10 0 59442  72102.000000  0   -2404920.194   2304991.943  -6036518.457
10 0 59442  72222.000000  0   -1645031.686   1945264.442  -6406918.666
10 0 59442  72342.000000  0    -863341.236   1538336.146  -6665491.899
10 0 59442  72462.000000  0     -74169.354   1091017.696  -6807787.804
10 0 59442  72582.000000  0     708175.462    611057.105  -6831359.434
10 0 59442  72702.000000  0    1469649.711    107008.429  -6735802.645
10 0 59442  72822.000000  0    2196722.339   -411917.723  -6522761.764
10 0 59442  72942.000000  0    2876609.345   -936017.945  -6195904.040
10 0 59442  73062.000000  0    3497495.872  -1455272.729  -5760863.158
10 0 59442  73182.000000  0    4048740.512  -1959532.831  -5225152.071
10 0 59442  73302.000000  0    4521061.447  -2438715.320  -4598045.090
10 0 59442  73422.000000  0    4906698.259  -2883004.115  -3890427.706
10 0 59442  73542.000000  0    5199546.833  -3283050.574  -3114617.399
10 0 59442  73662.000000  0    5395265.460  -3630170.551  -2284156.305
10 0 59442  73782.000000  0    5491347.653  -3916533.184  -1413577.647
10 0 59442  73902.000000  0    5487159.259  -4135336.928   -518151.130
10 0 59442  74022.000000  0    5383938.805  -4280968.183    386388.870
10 0 59442  74142.000000  0    5184760.006  -4349138.447   1284127.065
10 0 59442  74262.000000  0    4894455.701  -4336995.060   2159256.388
10 0 59442  74382.000000  0    4519506.564  -4243201.931   2996365.277
10 0 59442  74502.000000  0    4067897.691  -4067989.342   3780716.044
10 0 59442  74622.000000  0    3548946.783  -3813172.745   4498510.055
10 0 59442  74742.000000  0    2973106.681  -3482138.402   5137133.762
10 0 59442  74862.000000  0    2351749.859  -3079796.728   5685379.530
10 0 59442  74982.000000  0    1696939.116  -2612505.677   6133640.026
10 0 59442  75102.000000  0    1021189.020  -2087965.620   6474070.831
10 0 59442  75222.000000  0     337224.466  -1515088.977   6700721.495
10 0 59442  75342.000000  0    -342259.734   -903846.342   6809633.656
10 0 59442  75462.000000  0   -1004833.667   -265091.327   6798905.493
10 0 59442  75582.000000  0   -1638558.581    389632.012   6668722.626
10 0 59442  75702.000000  0   -2232201.207   1048297.234   6421355.185
10 0 59442  75822.000000  0   -2775432.875   1698615.415   6061120.848
10 0 59442  75942.000000  0   -3259010.338   2328263.664   5594314.540
10 0 59442  76062.000000  0   -3674936.334   2925119.481   5029105.312
10 0 59442  76182.000000  0   -4016596.478   3477496.330   4375399.058
10 0 59442  76302.000000  0   -4278869.628   3974375.695   3644670.023
10 0 59442  76422.000000  0   -4458209.650   4405631.567   2849762.474
10 0 59442  76542.000000  0   -4552695.163   4762241.872   2004664.427
10 0 59442  76662.000000  0   -4562045.812   5036481.041   1124258.008
10 0 59442  76782.000000  0   -4487605.957   5222088.066    224051.741
10 0 59442  76902.000000  0   -4332296.077   5314407.608   -680099.818
10 0 59442  77022.000000  0   -4100531.274   5310500.410  -1572285.929
10 0 59442  77142.000000  0   -3798107.393   5209215.170  -2436829.455
10 0 59442  77262.000000  0   -3432061.484   5011226.510  -3258568.800
10 0 59442  77382.000000  0   -3010508.650   4719034.014  -4023128.455
10 0 59442  77502.000000  0   -2542460.810   4336924.759  -4717169.609
10 0 59442  77622.000000  0   -2037632.376   3870902.318  -5328617.408
10 0 59442  77742.000000  0   -1506238.372   3328585.394  -5846863.289
10 0 59442  77862.000000  0    -958787.848   2719075.877  -6262940.408
10 0 59442  77982.000000  0    -405877.058   2052799.846  -6569667.618
10 0 59442  78102.000000  0     142012.496   1341326.900  -6761761.568
10 0 59442  78222.000000  0     674707.716    597170.063  -6835918.541
10 0 59442  78342.000000  0    1182528.686   -166430.530  -6790865.922
10 0 59442  78462.000000  0    1656460.601   -935738.973  -6627380.655
10 0 59442  78582.000000  0    2088309.399  -1696764.232  -6348276.248
10 0 59442  78702.000000  0    2470841.240  -2435507.961  -5958359.882
10 0 59442  78822.000000  0    2797903.190  -3138216.847  -5464359.609
10 0 59442  78942.000000  0    3064524.652  -3791638.738  -4874819.926
10 0 59442  79062.000000  0    3266995.099  -4383273.889  -4199962.675
10 0 59442  79182.000000  0    3402916.867  -4901615.984  -3451520.200
10 0 59442  79302.000000  0    3471234.380  -5336382.323  -2642541.469
10 0 59442  79422.000000  0    3472236.464  -5678726.960  -1787169.236
10 0 59442  79542.000000  0    3407531.392  -5921428.323   -900393.657
10 0 59442  79662.000000  0    3279994.988  -6059048.931      2213.525
10 0 59442  79782.000000  0    3093691.012  -6088060.024    904778.980
10 0 59442  79902.000000  0    2853767.828  -6006929.766   1791414.251
10 0 59442  80022.000000  0    2566332.889  -5816170.648   2646506.026
10 0 59442  80142.000000  0    2238306.970  -5518343.963   3454999.204
10 0 59442  80262.000000  0    1877263.996  -5118024.029   4202667.169
10 0 59442  80382.000000  0    1491260.206  -4621723.079   4876366.023
10 0 59442  80502.000000  0    1088657.571  -4037777.916   5464266.618
10 0 59442  80622.000000  0     677943.852  -3376201.173   5956062.005
10 0 59442  80742.000000  0     267554.155  -2648500.017   6343142.686
10 0 59442  80862.000000  0    -134300.789  -1867469.920   6618740.159
10 0 59442  80982.000000  0    -519796.861  -1046966.596   6778038.846
10 0 59442  81102.000000  0    -881647.473   -201658.745   6818256.402
10 0 59442  81222.000000  0   -1213240.252    653235.103   6738689.488
10 0 59442  81342.000000  0   -1508757.415   1502220.159   6540724.961
10 0 59442  81462.000000  0   -1763277.729   2329805.247   6227817.236
10 0 59442  81582.000000  0   -1972859.130   3120785.318   5805431.898
10 0 59442  81702.000000  0   -2134600.075   3860522.036   5280955.464
10 0 59442  81822.000000  0   -2246679.316   4535218.231   4663573.443
10 0 59442  81942.000000  0   -2308373.342   5132181.900   3964115.168
99
